{"type":"FeatureCollection","features":[{"type":"Feature","geometry":{"type":"Point","coordinates":[138.2,8.1]},"properties":{"kind":"observation","storm_id":"JTWC_WP962026","storm_name":"96W","basin":"wp","intensity_kt":20.0,"mslp_mb":1006.0,"time_iso":"2026-05-12T06:00:00","sshws_cat":"TD","is_subtropical":false,"is_nontropical":true}},{"type":"Feature","geometry":{"type":"Point","coordinates":[138.2,8.1]},"properties":{"kind":"active_marker","storm_id":"JTWC_WP962026","name":"96W","designation":"96W","current_intensity_kt":20.0,"current_category":"TD","marker_type":"invest_x"}},{"type":"Feature","geometry":{"type":"LineString","coordinates":[[160.9,3.0],[160.5,3.8],[160.3,4.3],[160.0,4.0],[158.5,4.0],[157.0,4.0],[156.2,4.1],[155.2,4.3],[154.1,5.0],[153.4,5.7],[153.0,6.4],[153.3,7.5],[153.0,8.0],[152.7,8.1],[152.4,8.1],[152.2,8.1],[151.8,8.2],[151.5,8.3],[151.2,8.2],[151.0,8.2],[150.9,8.0],[151.3,8.1],[151.6,8.5],[151.6,8.8],[151.4,8.9],[151.4,9.2],[151.2,9.8],[150.6,10.3],[150.2,11.1],[149.5,11.6],[148.8,12.2],[148.0,12.7],[147.4,13.1],[147.0,13.7],[146.5,14.3],[146.0,14.6],[145.8,14.9],[145.5,15.2],[145.2,15.6],[144.9,16.0],[144.6,16.2],[144.4,16.7],[144.4,17.1],[144.5,17.7],[144.8,18.4],[145.0,19.0],[145.3,19.5],[145.7,20.1],[146.0,20.8],[146.2,21.5],[146.4,22.2],[146.8,23.3],[147.4,24.3],[148.3,25.4],[149.5,26.5],[151.4,27.6],[153.7,28.3],[156.1,28.9],[158.8,29.6],[161.2,29.8]]},"properties":{"kind":"track","storm_id":"JTWC_WP042026","name":"SINLAKU","basin":"wp","peak_intensity":"C5","peak_kt":160.0,"is_active":false,"is_invest":false,"designation":""}},{"type":"Feature","geometry":{"type":"Point","coordinates":[160.9,3.0]},"properties":{"kind":"observation","storm_id":"JTWC_WP042026","storm_name":"SINLAKU","basin":"wp","intensity_kt":15.0,"mslp_mb":1009.0,"time_iso":"2026-04-05T12:00:00","sshws_cat":"TD","is_subtropical":false,"is_nontropical":true}},{"type":"Feature","geometry":{"type":"Point","coordinates":[160.5,3.8]},"properties":{"kind":"observation","storm_id":"JTWC_WP042026","storm_name":"SINLAKU","basin":"wp","intensity_kt":15.0,"mslp_mb":1009.0,"time_iso":"2026-04-05T18:00:00","sshws_cat":"TD","is_subtropical":false,"is_nontropical":true}},{"type":"Feature","geometry":{"type":"Point","coordinates":[160.3,4.3]},"properties":{"kind":"observation","storm_id":"JTWC_WP042026","storm_name":"SINLAKU","basin":"wp","intensity_kt":15.0,"mslp_mb":1006.0,"time_iso":"2026-04-06T00:00:00","sshws_cat":"TD","is_subtropical":false,"is_nontropical":true}},{"type":"Feature","geometry":{"type":"Point","coordinates":[160.0,4.0]},"properties":{"kind":"observation","storm_id":"JTWC_WP042026","storm_name":"SINLAKU","basin":"wp","intensity_kt":15.0,"mslp_mb":1004.0,"time_iso":"2026-04-06T06:00:00","sshws_cat":"TD","is_subtropical":false,"is_nontropical":true}},{"type":"Feature","geometry":{"type":"Point","coordinates":[158.5,4.0]},"properties":{"kind":"observation","storm_id":"JTWC_WP042026","storm_name":"SINLAKU","basin":"wp","intensity_kt":15.0,"mslp_mb":1003.0,"time_iso":"2026-04-06T12:00:00","sshws_cat":"TD","is_subtropical":false,"is_nontropical":true}},{"type":"Feature","geometry":{"type":"Point","coordinates":[157.0,4.0]},"properties":{"kind":"observation","storm_id":"JTWC_WP042026","storm_name":"SINLAKU","basin":"wp","intensity_kt":15.0,"mslp_mb":1003.0,"time_iso":"2026-04-06T18:00:00","sshws_cat":"TD","is_subtropical":false,"is_nontropical":true}},{"type":"Feature","geometry":{"type":"Point","coordinates":[156.2,4.1]},"properties":{"kind":"observation","storm_id":"JTWC_WP042026","storm_name":"SINLAKU","basin":"wp","intensity_kt":15.0,"mslp_mb":1003.0,"time_iso":"2026-04-07T00:00:00","sshws_cat":"TD","is_subtropical":false,"is_nontropical":true}},{"type":"Feature","geometry":{"type":"Point","coordinates":[155.2,4.3]},"properties":{"kind":"observation","storm_id":"JTWC_WP042026","storm_name":"SINLAKU","basin":"wp","intensity_kt":15.0,"mslp_mb":1002.0,"time_iso":"2026-04-07T06:00:00","sshws_cat":"TD","is_subtropical":false,"is_nontropical":true}},{"type":"Feature","geometry":{"type":"Point","coordinates":[154.1,5.0]},"properties":{"kind":"observation","storm_id":"JTWC_WP042026","storm_name":"SINLAKU","basin":"wp","intensity_kt":15.0,"mslp_mb":1002.0,"time_iso":"2026-04-07T12:00:00","sshws_cat":"TD","is_subtropical":false,"is_nontropical":true}},{"type":"Feature","geometry":{"type":"Point","coordinates":[153.4,5.7]},"properties":{"kind":"observation","storm_id":"JTWC_WP042026","storm_name":"SINLAKU","basin":"wp","intensity_kt":15.0,"mslp_mb":1002.0,"time_iso":"2026-04-07T18:00:00","sshws_cat":"TD","is_subtropical":false,"is_nontropical":true}},{"type":"Feature","geometry":{"type":"Point","coordinates":[153.0,6.4]},"properties":{"kind":"observation","storm_id":"JTWC_WP042026","storm_name":"SINLAKU","basin":"wp","intensity_kt":15.0,"mslp_mb":1002.0,"time_iso":"2026-04-08T00:00:00","sshws_cat":"TD","is_subtropical":false,"is_nontropical":true}},{"type":"Feature","geometry":{"type":"Point","coordinates":[153.3,7.5]},"properties":{"kind":"observation","storm_id":"JTWC_WP042026","storm_name":"SINLAKU","basin":"wp","intensity_kt":20.0,"mslp_mb":1002.0,"time_iso":"2026-04-08T06:00:00","sshws_cat":"TD","is_subtropical":false,"is_nontropical":true}},{"type":"Feature","geometry":{"type":"Point","coordinates":[153.0,8.0]},"properties":{"kind":"observation","storm_id":"JTWC_WP042026","storm_name":"SINLAKU","basin":"wp","intensity_kt":20.0,"mslp_mb":1002.0,"time_iso":"2026-04-08T12:00:00","sshws_cat":"TD","is_subtropical":false,"is_nontropical":true}},{"type":"Feature","geometry":{"type":"Point","coordinates":[152.7,8.1]},"properties":{"kind":"observation","storm_id":"JTWC_WP042026","storm_name":"SINLAKU","basin":"wp","intensity_kt":20.0,"mslp_mb":1000.0,"time_iso":"2026-04-08T18:00:00","sshws_cat":"TD","is_subtropical":false,"is_nontropical":true}},{"type":"Feature","geometry":{"type":"Point","coordinates":[152.4,8.1]},"properties":{"kind":"observation","storm_id":"JTWC_WP042026","storm_name":"SINLAKU","basin":"wp","intensity_kt":25.0,"mslp_mb":1000.0,"time_iso":"2026-04-09T00:00:00","sshws_cat":"TD","is_subtropical":false,"is_nontropical":false}},{"type":"Feature","geometry":{"type":"Point","coordinates":[152.2,8.1]},"properties":{"kind":"observation","storm_id":"JTWC_WP042026","storm_name":"SINLAKU","basin":"wp","intensity_kt":30.0,"mslp_mb":998.0,"time_iso":"2026-04-09T06:00:00","sshws_cat":"TD","is_subtropical":false,"is_nontropical":false}},{"type":"Feature","geometry":{"type":"Point","coordinates":[151.8,8.2]},"properties":{"kind":"observation","storm_id":"JTWC_WP042026","storm_name":"SINLAKU","basin":"wp","intensity_kt":30.0,"mslp_mb":997.0,"time_iso":"2026-04-09T12:00:00","sshws_cat":"TD","is_subtropical":false,"is_nontropical":false}},{"type":"Feature","geometry":{"type":"Point","coordinates":[151.5,8.3]},"properties":{"kind":"observation","storm_id":"JTWC_WP042026","storm_name":"SINLAKU","basin":"wp","intensity_kt":35.0,"mslp_mb":995.0,"time_iso":"2026-04-09T18:00:00","sshws_cat":"TS","is_subtropical":false,"is_nontropical":false}},{"type":"Feature","geometry":{"type":"Point","coordinates":[151.2,8.2]},"properties":{"kind":"observation","storm_id":"JTWC_WP042026","storm_name":"SINLAKU","basin":"wp","intensity_kt":40.0,"mslp_mb":993.0,"time_iso":"2026-04-10T00:00:00","sshws_cat":"TS","is_subtropical":false,"is_nontropical":false}},{"type":"Feature","geometry":{"type":"Point","coordinates":[151.0,8.2]},"properties":{"kind":"observation","storm_id":"JTWC_WP042026","storm_name":"SINLAKU","basin":"wp","intensity_kt":45.0,"mslp_mb":989.0,"time_iso":"2026-04-10T06:00:00","sshws_cat":"TS","is_subtropical":false,"is_nontropical":false}},{"type":"Feature","geometry":{"type":"Point","coordinates":[150.9,8.0]},"properties":{"kind":"observation","storm_id":"JTWC_WP042026","storm_name":"SINLAKU","basin":"wp","intensity_kt":55.0,"mslp_mb":986.0,"time_iso":"2026-04-10T12:00:00","sshws_cat":"TS","is_subtropical":false,"is_nontropical":false}},{"type":"Feature","geometry":{"type":"Point","coordinates":[151.3,8.1]},"properties":{"kind":"observation","storm_id":"JTWC_WP042026","storm_name":"SINLAKU","basin":"wp","intensity_kt":65.0,"mslp_mb":983.0,"time_iso":"2026-04-10T18:00:00","sshws_cat":"C1","is_subtropical":false,"is_nontropical":false}},{"type":"Feature","geometry":{"type":"Point","coordinates":[151.6,8.5]},"properties":{"kind":"observation","storm_id":"JTWC_WP042026","storm_name":"SINLAKU","basin":"wp","intensity_kt":75.0,"mslp_mb":972.0,"time_iso":"2026-04-11T00:00:00","sshws_cat":"C1","is_subtropical":false,"is_nontropical":false}},{"type":"Feature","geometry":{"type":"Point","coordinates":[151.6,8.8]},"properties":{"kind":"observation","storm_id":"JTWC_WP042026","storm_name":"SINLAKU","basin":"wp","intensity_kt":80.0,"mslp_mb":968.0,"time_iso":"2026-04-11T06:00:00","sshws_cat":"C1","is_subtropical":false,"is_nontropical":false}},{"type":"Feature","geometry":{"type":"Point","coordinates":[151.4,8.9]},"properties":{"kind":"observation","storm_id":"JTWC_WP042026","storm_name":"SINLAKU","basin":"wp","intensity_kt":85.0,"mslp_mb":965.0,"time_iso":"2026-04-11T12:00:00","sshws_cat":"C2","is_subtropical":false,"is_nontropical":false}},{"type":"Feature","geometry":{"type":"Point","coordinates":[151.4,9.2]},"properties":{"kind":"observation","storm_id":"JTWC_WP042026","storm_name":"SINLAKU","basin":"wp","intensity_kt":95.0,"mslp_mb":957.0,"time_iso":"2026-04-11T18:00:00","sshws_cat":"C2","is_subtropical":false,"is_nontropical":false}},{"type":"Feature","geometry":{"type":"Point","coordinates":[151.2,9.8]},"properties":{"kind":"observation","storm_id":"JTWC_WP042026","storm_name":"SINLAKU","basin":"wp","intensity_kt":115.0,"mslp_mb":939.0,"time_iso":"2026-04-12T00:00:00","sshws_cat":"C4","is_subtropical":false,"is_nontropical":false}},{"type":"Feature","geometry":{"type":"Point","coordinates":[150.6,10.3]},"properties":{"kind":"observation","storm_id":"JTWC_WP042026","storm_name":"SINLAKU","basin":"wp","intensity_kt":130.0,"mslp_mb":921.0,"time_iso":"2026-04-12T06:00:00","sshws_cat":"C4","is_subtropical":false,"is_nontropical":false}},{"type":"Feature","geometry":{"type":"Point","coordinates":[150.2,11.1]},"properties":{"kind":"observation","storm_id":"JTWC_WP042026","storm_name":"SINLAKU","basin":"wp","intensity_kt":150.0,"mslp_mb":902.0,"time_iso":"2026-04-12T12:00:00","sshws_cat":"C5","is_subtropical":false,"is_nontropical":false}},{"type":"Feature","geometry":{"type":"Point","coordinates":[149.5,11.6]},"properties":{"kind":"observation","storm_id":"JTWC_WP042026","storm_name":"SINLAKU","basin":"wp","intensity_kt":160.0,"mslp_mb":890.0,"time_iso":"2026-04-12T18:00:00","sshws_cat":"C5","is_subtropical":false,"is_nontropical":false}},{"type":"Feature","geometry":{"type":"Point","coordinates":[148.8,12.2]},"properties":{"kind":"observation","storm_id":"JTWC_WP042026","storm_name":"SINLAKU","basin":"wp","intensity_kt":155.0,"mslp_mb":897.0,"time_iso":"2026-04-13T00:00:00","sshws_cat":"C5","is_subtropical":false,"is_nontropical":false}},{"type":"Feature","geometry":{"type":"Point","coordinates":[148.0,12.7]},"properties":{"kind":"observation","storm_id":"JTWC_WP042026","storm_name":"SINLAKU","basin":"wp","intensity_kt":150.0,"mslp_mb":903.0,"time_iso":"2026-04-13T06:00:00","sshws_cat":"C5","is_subtropical":false,"is_nontropical":false}},{"type":"Feature","geometry":{"type":"Point","coordinates":[147.4,13.1]},"properties":{"kind":"observation","storm_id":"JTWC_WP042026","storm_name":"SINLAKU","basin":"wp","intensity_kt":150.0,"mslp_mb":904.0,"time_iso":"2026-04-13T12:00:00","sshws_cat":"C5","is_subtropical":false,"is_nontropical":false}},{"type":"Feature","geometry":{"type":"Point","coordinates":[147.0,13.7]},"properties":{"kind":"observation","storm_id":"JTWC_WP042026","storm_name":"SINLAKU","basin":"wp","intensity_kt":145.0,"mslp_mb":906.0,"time_iso":"2026-04-13T18:00:00","sshws_cat":"C5","is_subtropical":false,"is_nontropical":false}},{"type":"Feature","geometry":{"type":"Point","coordinates":[146.5,14.3]},"properties":{"kind":"observation","storm_id":"JTWC_WP042026","storm_name":"SINLAKU","basin":"wp","intensity_kt":135.0,"mslp_mb":919.0,"time_iso":"2026-04-14T00:00:00","sshws_cat":"C4","is_subtropical":false,"is_nontropical":false}},{"type":"Feature","geometry":{"type":"Point","coordinates":[146.0,14.6]},"properties":{"kind":"observation","storm_id":"JTWC_WP042026","storm_name":"SINLAKU","basin":"wp","intensity_kt":130.0,"mslp_mb":925.0,"time_iso":"2026-04-14T06:00:00","sshws_cat":"C4","is_subtropical":false,"is_nontropical":false}},{"type":"Feature","geometry":{"type":"Point","coordinates":[145.8,14.9]},"properties":{"kind":"observation","storm_id":"JTWC_WP042026","storm_name":"SINLAKU","basin":"wp","intensity_kt":125.0,"mslp_mb":930.0,"time_iso":"2026-04-14T12:00:00","sshws_cat":"C4","is_subtropical":false,"is_nontropical":false}},{"type":"Feature","geometry":{"type":"Point","coordinates":[145.5,15.2]},"properties":{"kind":"observation","storm_id":"JTWC_WP042026","storm_name":"SINLAKU","basin":"wp","intensity_kt":115.0,"mslp_mb":939.0,"time_iso":"2026-04-14T18:00:00","sshws_cat":"C4","is_subtropical":false,"is_nontropical":false}},{"type":"Feature","geometry":{"type":"Point","coordinates":[145.2,15.6]},"properties":{"kind":"observation","storm_id":"JTWC_WP042026","storm_name":"SINLAKU","basin":"wp","intensity_kt":110.0,"mslp_mb":944.0,"time_iso":"2026-04-15T00:00:00","sshws_cat":"C3","is_subtropical":false,"is_nontropical":false}},{"type":"Feature","geometry":{"type":"Point","coordinates":[144.9,16.0]},"properties":{"kind":"observation","storm_id":"JTWC_WP042026","storm_name":"SINLAKU","basin":"wp","intensity_kt":110.0,"mslp_mb":944.0,"time_iso":"2026-04-15T06:00:00","sshws_cat":"C3","is_subtropical":false,"is_nontropical":false}},{"type":"Feature","geometry":{"type":"Point","coordinates":[144.6,16.2]},"properties":{"kind":"observation","storm_id":"JTWC_WP042026","storm_name":"SINLAKU","basin":"wp","intensity_kt":110.0,"mslp_mb":943.0,"time_iso":"2026-04-15T12:00:00","sshws_cat":"C3","is_subtropical":false,"is_nontropical":false}},{"type":"Feature","geometry":{"type":"Point","coordinates":[144.4,16.7]},"properties":{"kind":"observation","storm_id":"JTWC_WP042026","storm_name":"SINLAKU","basin":"wp","intensity_kt":105.0,"mslp_mb":942.0,"time_iso":"2026-04-15T18:00:00","sshws_cat":"C3","is_subtropical":false,"is_nontropical":false}},{"type":"Feature","geometry":{"type":"Point","coordinates":[144.4,17.1]},"properties":{"kind":"observation","storm_id":"JTWC_WP042026","storm_name":"SINLAKU","basin":"wp","intensity_kt":100.0,"mslp_mb":955.0,"time_iso":"2026-04-16T00:00:00","sshws_cat":"C3","is_subtropical":false,"is_nontropical":false}},{"type":"Feature","geometry":{"type":"Point","coordinates":[144.5,17.7]},"properties":{"kind":"observation","storm_id":"JTWC_WP042026","storm_name":"SINLAKU","basin":"wp","intensity_kt":100.0,"mslp_mb":953.0,"time_iso":"2026-04-16T06:00:00","sshws_cat":"C3","is_subtropical":false,"is_nontropical":false}},{"type":"Feature","geometry":{"type":"Point","coordinates":[144.8,18.4]},"properties":{"kind":"observation","storm_id":"JTWC_WP042026","storm_name":"SINLAKU","basin":"wp","intensity_kt":90.0,"mslp_mb":963.0,"time_iso":"2026-04-16T12:00:00","sshws_cat":"C2","is_subtropical":false,"is_nontropical":false}},{"type":"Feature","geometry":{"type":"Point","coordinates":[145.0,19.0]},"properties":{"kind":"observation","storm_id":"JTWC_WP042026","storm_name":"SINLAKU","basin":"wp","intensity_kt":85.0,"mslp_mb":966.0,"time_iso":"2026-04-16T18:00:00","sshws_cat":"C2","is_subtropical":false,"is_nontropical":false}},{"type":"Feature","geometry":{"type":"Point","coordinates":[145.3,19.5]},"properties":{"kind":"observation","storm_id":"JTWC_WP042026","storm_name":"SINLAKU","basin":"wp","intensity_kt":80.0,"mslp_mb":971.0,"time_iso":"2026-04-17T00:00:00","sshws_cat":"C1","is_subtropical":false,"is_nontropical":false}},{"type":"Feature","geometry":{"type":"Point","coordinates":[145.7,20.1]},"properties":{"kind":"observation","storm_id":"JTWC_WP042026","storm_name":"SINLAKU","basin":"wp","intensity_kt":80.0,"mslp_mb":971.0,"time_iso":"2026-04-17T06:00:00","sshws_cat":"C1","is_subtropical":false,"is_nontropical":false}},{"type":"Feature","geometry":{"type":"Point","coordinates":[146.0,20.8]},"properties":{"kind":"observation","storm_id":"JTWC_WP042026","storm_name":"SINLAKU","basin":"wp","intensity_kt":75.0,"mslp_mb":974.0,"time_iso":"2026-04-17T12:00:00","sshws_cat":"C1","is_subtropical":false,"is_nontropical":false}},{"type":"Feature","geometry":{"type":"Point","coordinates":[146.2,21.5]},"properties":{"kind":"observation","storm_id":"JTWC_WP042026","storm_name":"SINLAKU","basin":"wp","intensity_kt":70.0,"mslp_mb":974.0,"time_iso":"2026-04-17T18:00:00","sshws_cat":"C1","is_subtropical":false,"is_nontropical":false}},{"type":"Feature","geometry":{"type":"Point","coordinates":[146.4,22.2]},"properties":{"kind":"observation","storm_id":"JTWC_WP042026","storm_name":"SINLAKU","basin":"wp","intensity_kt":65.0,"mslp_mb":979.0,"time_iso":"2026-04-18T00:00:00","sshws_cat":"C1","is_subtropical":false,"is_nontropical":false}},{"type":"Feature","geometry":{"type":"Point","coordinates":[146.8,23.3]},"properties":{"kind":"observation","storm_id":"JTWC_WP042026","storm_name":"SINLAKU","basin":"wp","intensity_kt":65.0,"mslp_mb":978.0,"time_iso":"2026-04-18T06:00:00","sshws_cat":"C1","is_subtropical":false,"is_nontropical":false}},{"type":"Feature","geometry":{"type":"Point","coordinates":[147.4,24.3]},"properties":{"kind":"observation","storm_id":"JTWC_WP042026","storm_name":"SINLAKU","basin":"wp","intensity_kt":60.0,"mslp_mb":981.0,"time_iso":"2026-04-18T12:00:00","sshws_cat":"TS","is_subtropical":false,"is_nontropical":false}},{"type":"Feature","geometry":{"type":"Point","coordinates":[148.3,25.4]},"properties":{"kind":"observation","storm_id":"JTWC_WP042026","storm_name":"SINLAKU","basin":"wp","intensity_kt":55.0,"mslp_mb":983.0,"time_iso":"2026-04-18T18:00:00","sshws_cat":"TS","is_subtropical":false,"is_nontropical":false}},{"type":"Feature","geometry":{"type":"Point","coordinates":[149.5,26.5]},"properties":{"kind":"observation","storm_id":"JTWC_WP042026","storm_name":"SINLAKU","basin":"wp","intensity_kt":55.0,"mslp_mb":983.0,"time_iso":"2026-04-19T00:00:00","sshws_cat":"TS","is_subtropical":false,"is_nontropical":false}},{"type":"Feature","geometry":{"type":"Point","coordinates":[151.4,27.6]},"properties":{"kind":"observation","storm_id":"JTWC_WP042026","storm_name":"SINLAKU","basin":"wp","intensity_kt":55.0,"mslp_mb":983.0,"time_iso":"2026-04-19T06:00:00","sshws_cat":"TS","is_subtropical":false,"is_nontropical":false}},{"type":"Feature","geometry":{"type":"Point","coordinates":[153.7,28.3]},"properties":{"kind":"observation","storm_id":"JTWC_WP042026","storm_name":"SINLAKU","basin":"wp","intensity_kt":55.0,"mslp_mb":983.0,"time_iso":"2026-04-19T12:00:00","sshws_cat":"TS","is_subtropical":true,"is_nontropical":false}},{"type":"Feature","geometry":{"type":"Point","coordinates":[156.1,28.9]},"properties":{"kind":"observation","storm_id":"JTWC_WP042026","storm_name":"SINLAKU","basin":"wp","intensity_kt":50.0,"mslp_mb":986.0,"time_iso":"2026-04-19T18:00:00","sshws_cat":"TS","is_subtropical":false,"is_nontropical":true}},{"type":"Feature","geometry":{"type":"Point","coordinates":[158.8,29.6]},"properties":{"kind":"observation","storm_id":"JTWC_WP042026","storm_name":"SINLAKU","basin":"wp","intensity_kt":45.0,"mslp_mb":988.0,"time_iso":"2026-04-20T00:00:00","sshws_cat":"TS","is_subtropical":false,"is_nontropical":true}},{"type":"Feature","geometry":{"type":"Point","coordinates":[161.2,29.8]},"properties":{"kind":"observation","storm_id":"JTWC_WP042026","storm_name":"SINLAKU","basin":"wp","intensity_kt":45.0,"mslp_mb":988.0,"time_iso":"2026-04-20T06:00:00","sshws_cat":"TS","is_subtropical":false,"is_nontropical":true}},{"type":"Feature","geometry":{"type":"LineString","coordinates":[[133.0,7.3],[132.7,7.5],[131.8,8.1],[131.1,8.7],[130.5,9.0],[130.0,9.2],[129.5,9.4],[129.0,9.9],[128.9,10.1],[129.0,10.2],[128.7,11.2],[127.9,11.8],[126.9,12.1],[125.6,12.8],[125.1,13.6],[124.9,13.9],[124.8,14.1],[125.2,14.2],[125.3,14.4],[125.4,14.9],[125.5,15.4],[125.7,16.0],[126.3,16.5],[127.1,16.7],[127.7,17.2],[128.1,17.0],[129.0,17.2],[130.3,17.9],[132.0,17.7],[133.0,17.1],[133.6,16.6],[133.9,15.8],[134.2,14.5],[134.6,13.6],[134.5,12.1]]},"properties":{"kind":"track","storm_id":"JTWC_WP012026","name":"NOKAEN","basin":"wp","peak_intensity":"TS","peak_kt":50.0,"is_active":false,"is_invest":false,"designation":""}},{"type":"Feature","geometry":{"type":"Point","coordinates":[133.0,7.3]},"properties":{"kind":"observation","storm_id":"JTWC_WP012026","storm_name":"NOKAEN","basin":"wp","intensity_kt":15.0,"mslp_mb":1003.0,"time_iso":"2026-01-13T12:00:00","sshws_cat":"TD","is_subtropical":false,"is_nontropical":true}},{"type":"Feature","geometry":{"type":"Point","coordinates":[132.7,7.5]},"properties":{"kind":"observation","storm_id":"JTWC_WP012026","storm_name":"NOKAEN","basin":"wp","intensity_kt":20.0,"mslp_mb":1003.0,"time_iso":"2026-01-13T18:00:00","sshws_cat":"TD","is_subtropical":false,"is_nontropical":true}},{"type":"Feature","geometry":{"type":"Point","coordinates":[131.8,8.1]},"properties":{"kind":"observation","storm_id":"JTWC_WP012026","storm_name":"NOKAEN","basin":"wp","intensity_kt":20.0,"mslp_mb":1003.0,"time_iso":"2026-01-14T00:00:00","sshws_cat":"TD","is_subtropical":false,"is_nontropical":true}},{"type":"Feature","geometry":{"type":"Point","coordinates":[131.1,8.7]},"properties":{"kind":"observation","storm_id":"JTWC_WP012026","storm_name":"NOKAEN","basin":"wp","intensity_kt":20.0,"mslp_mb":1001.0,"time_iso":"2026-01-14T06:00:00","sshws_cat":"TD","is_subtropical":false,"is_nontropical":true}},{"type":"Feature","geometry":{"type":"Point","coordinates":[130.5,9.0]},"properties":{"kind":"observation","storm_id":"JTWC_WP012026","storm_name":"NOKAEN","basin":"wp","intensity_kt":30.0,"mslp_mb":1002.0,"time_iso":"2026-01-14T12:00:00","sshws_cat":"TD","is_subtropical":false,"is_nontropical":false}},{"type":"Feature","geometry":{"type":"Point","coordinates":[130.0,9.2]},"properties":{"kind":"observation","storm_id":"JTWC_WP012026","storm_name":"NOKAEN","basin":"wp","intensity_kt":30.0,"mslp_mb":1002.0,"time_iso":"2026-01-14T18:00:00","sshws_cat":"TD","is_subtropical":false,"is_nontropical":false}},{"type":"Feature","geometry":{"type":"Point","coordinates":[129.5,9.4]},"properties":{"kind":"observation","storm_id":"JTWC_WP012026","storm_name":"NOKAEN","basin":"wp","intensity_kt":30.0,"mslp_mb":1002.0,"time_iso":"2026-01-15T00:00:00","sshws_cat":"TD","is_subtropical":false,"is_nontropical":false}},{"type":"Feature","geometry":{"type":"Point","coordinates":[129.0,9.9]},"properties":{"kind":"observation","storm_id":"JTWC_WP012026","storm_name":"NOKAEN","basin":"wp","intensity_kt":30.0,"mslp_mb":998.0,"time_iso":"2026-01-15T06:00:00","sshws_cat":"TD","is_subtropical":false,"is_nontropical":false}},{"type":"Feature","geometry":{"type":"Point","coordinates":[128.9,10.1]},"properties":{"kind":"observation","storm_id":"JTWC_WP012026","storm_name":"NOKAEN","basin":"wp","intensity_kt":30.0,"mslp_mb":998.0,"time_iso":"2026-01-15T12:00:00","sshws_cat":"TD","is_subtropical":false,"is_nontropical":false}},{"type":"Feature","geometry":{"type":"Point","coordinates":[129.0,10.2]},"properties":{"kind":"observation","storm_id":"JTWC_WP012026","storm_name":"NOKAEN","basin":"wp","intensity_kt":30.0,"mslp_mb":998.0,"time_iso":"2026-01-15T18:00:00","sshws_cat":"TD","is_subtropical":false,"is_nontropical":false}},{"type":"Feature","geometry":{"type":"Point","coordinates":[128.7,11.2]},"properties":{"kind":"observation","storm_id":"JTWC_WP012026","storm_name":"NOKAEN","basin":"wp","intensity_kt":30.0,"mslp_mb":999.0,"time_iso":"2026-01-16T00:00:00","sshws_cat":"TD","is_subtropical":false,"is_nontropical":false}},{"type":"Feature","geometry":{"type":"Point","coordinates":[127.9,11.8]},"properties":{"kind":"observation","storm_id":"JTWC_WP012026","storm_name":"NOKAEN","basin":"wp","intensity_kt":40.0,"mslp_mb":997.0,"time_iso":"2026-01-16T06:00:00","sshws_cat":"TS","is_subtropical":false,"is_nontropical":false}},{"type":"Feature","geometry":{"type":"Point","coordinates":[126.9,12.1]},"properties":{"kind":"observation","storm_id":"JTWC_WP012026","storm_name":"NOKAEN","basin":"wp","intensity_kt":40.0,"mslp_mb":997.0,"time_iso":"2026-01-16T12:00:00","sshws_cat":"TS","is_subtropical":false,"is_nontropical":false}},{"type":"Feature","geometry":{"type":"Point","coordinates":[125.6,12.8]},"properties":{"kind":"observation","storm_id":"JTWC_WP012026","storm_name":"NOKAEN","basin":"wp","intensity_kt":45.0,"mslp_mb":992.0,"time_iso":"2026-01-16T18:00:00","sshws_cat":"TS","is_subtropical":false,"is_nontropical":false}},{"type":"Feature","geometry":{"type":"Point","coordinates":[125.1,13.6]},"properties":{"kind":"observation","storm_id":"JTWC_WP012026","storm_name":"NOKAEN","basin":"wp","intensity_kt":45.0,"mslp_mb":996.0,"time_iso":"2026-01-17T00:00:00","sshws_cat":"TS","is_subtropical":false,"is_nontropical":false}},{"type":"Feature","geometry":{"type":"Point","coordinates":[124.9,13.9]},"properties":{"kind":"observation","storm_id":"JTWC_WP012026","storm_name":"NOKAEN","basin":"wp","intensity_kt":50.0,"mslp_mb":994.0,"time_iso":"2026-01-17T06:00:00","sshws_cat":"TS","is_subtropical":false,"is_nontropical":false}},{"type":"Feature","geometry":{"type":"Point","coordinates":[124.8,14.1]},"properties":{"kind":"observation","storm_id":"JTWC_WP012026","storm_name":"NOKAEN","basin":"wp","intensity_kt":45.0,"mslp_mb":993.0,"time_iso":"2026-01-17T12:00:00","sshws_cat":"TS","is_subtropical":false,"is_nontropical":false}},{"type":"Feature","geometry":{"type":"Point","coordinates":[125.2,14.2]},"properties":{"kind":"observation","storm_id":"JTWC_WP012026","storm_name":"NOKAEN","basin":"wp","intensity_kt":40.0,"mslp_mb":997.0,"time_iso":"2026-01-17T18:00:00","sshws_cat":"TS","is_subtropical":false,"is_nontropical":false}},{"type":"Feature","geometry":{"type":"Point","coordinates":[125.3,14.4]},"properties":{"kind":"observation","storm_id":"JTWC_WP012026","storm_name":"NOKAEN","basin":"wp","intensity_kt":35.0,"mslp_mb":999.0,"time_iso":"2026-01-18T00:00:00","sshws_cat":"TS","is_subtropical":false,"is_nontropical":false}},{"type":"Feature","geometry":{"type":"Point","coordinates":[125.4,14.9]},"properties":{"kind":"observation","storm_id":"JTWC_WP012026","storm_name":"NOKAEN","basin":"wp","intensity_kt":30.0,"mslp_mb":997.0,"time_iso":"2026-01-18T06:00:00","sshws_cat":"TD","is_subtropical":false,"is_nontropical":false}},{"type":"Feature","geometry":{"type":"Point","coordinates":[125.5,15.4]},"properties":{"kind":"observation","storm_id":"JTWC_WP012026","storm_name":"NOKAEN","basin":"wp","intensity_kt":25.0,"mslp_mb":998.0,"time_iso":"2026-01-18T12:00:00","sshws_cat":"TD","is_subtropical":false,"is_nontropical":false}},{"type":"Feature","geometry":{"type":"Point","coordinates":[125.7,16.0]},"properties":{"kind":"observation","storm_id":"JTWC_WP012026","storm_name":"NOKAEN","basin":"wp","intensity_kt":30.0,"mslp_mb":1000.0,"time_iso":"2026-01-18T18:00:00","sshws_cat":"TD","is_subtropical":false,"is_nontropical":false}},{"type":"Feature","geometry":{"type":"Point","coordinates":[126.3,16.5]},"properties":{"kind":"observation","storm_id":"JTWC_WP012026","storm_name":"NOKAEN","basin":"wp","intensity_kt":35.0,"mslp_mb":1002.0,"time_iso":"2026-01-19T00:00:00","sshws_cat":"TS","is_subtropical":false,"is_nontropical":false}},{"type":"Feature","geometry":{"type":"Point","coordinates":[127.1,16.7]},"properties":{"kind":"observation","storm_id":"JTWC_WP012026","storm_name":"NOKAEN","basin":"wp","intensity_kt":35.0,"mslp_mb":998.0,"time_iso":"2026-01-19T06:00:00","sshws_cat":"TS","is_subtropical":false,"is_nontropical":false}},{"type":"Feature","geometry":{"type":"Point","coordinates":[127.7,17.2]},"properties":{"kind":"observation","storm_id":"JTWC_WP012026","storm_name":"NOKAEN","basin":"wp","intensity_kt":35.0,"mslp_mb":1000.0,"time_iso":"2026-01-19T12:00:00","sshws_cat":"TS","is_subtropical":false,"is_nontropical":false}},{"type":"Feature","geometry":{"type":"Point","coordinates":[128.1,17.0]},"properties":{"kind":"observation","storm_id":"JTWC_WP012026","storm_name":"NOKAEN","basin":"wp","intensity_kt":35.0,"mslp_mb":999.0,"time_iso":"2026-01-19T18:00:00","sshws_cat":"TS","is_subtropical":false,"is_nontropical":false}},{"type":"Feature","geometry":{"type":"Point","coordinates":[129.0,17.2]},"properties":{"kind":"observation","storm_id":"JTWC_WP012026","storm_name":"NOKAEN","basin":"wp","intensity_kt":35.0,"mslp_mb":1000.0,"time_iso":"2026-01-20T00:00:00","sshws_cat":"TS","is_subtropical":false,"is_nontropical":false}},{"type":"Feature","geometry":{"type":"Point","coordinates":[130.3,17.9]},"properties":{"kind":"observation","storm_id":"JTWC_WP012026","storm_name":"NOKAEN","basin":"wp","intensity_kt":35.0,"mslp_mb":1000.0,"time_iso":"2026-01-20T06:00:00","sshws_cat":"TS","is_subtropical":false,"is_nontropical":false}},{"type":"Feature","geometry":{"type":"Point","coordinates":[132.0,17.7]},"properties":{"kind":"observation","storm_id":"JTWC_WP012026","storm_name":"NOKAEN","basin":"wp","intensity_kt":30.0,"mslp_mb":1001.0,"time_iso":"2026-01-20T12:00:00","sshws_cat":"TD","is_subtropical":false,"is_nontropical":false}},{"type":"Feature","geometry":{"type":"Point","coordinates":[133.0,17.1]},"properties":{"kind":"observation","storm_id":"JTWC_WP012026","storm_name":"NOKAEN","basin":"wp","intensity_kt":30.0,"mslp_mb":1001.0,"time_iso":"2026-01-20T18:00:00","sshws_cat":"TD","is_subtropical":false,"is_nontropical":false}},{"type":"Feature","geometry":{"type":"Point","coordinates":[133.6,16.6]},"properties":{"kind":"observation","storm_id":"JTWC_WP012026","storm_name":"NOKAEN","basin":"wp","intensity_kt":30.0,"mslp_mb":1001.0,"time_iso":"2026-01-21T00:00:00","sshws_cat":"TD","is_subtropical":false,"is_nontropical":false}},{"type":"Feature","geometry":{"type":"Point","coordinates":[133.9,15.8]},"properties":{"kind":"observation","storm_id":"JTWC_WP012026","storm_name":"NOKAEN","basin":"wp","intensity_kt":30.0,"mslp_mb":1001.0,"time_iso":"2026-01-21T06:00:00","sshws_cat":"TD","is_subtropical":false,"is_nontropical":false}},{"type":"Feature","geometry":{"type":"Point","coordinates":[134.2,14.5]},"properties":{"kind":"observation","storm_id":"JTWC_WP012026","storm_name":"NOKAEN","basin":"wp","intensity_kt":30.0,"mslp_mb":1001.0,"time_iso":"2026-01-21T12:00:00","sshws_cat":"TD","is_subtropical":false,"is_nontropical":false}},{"type":"Feature","geometry":{"type":"Point","coordinates":[134.6,13.6]},"properties":{"kind":"observation","storm_id":"JTWC_WP012026","storm_name":"NOKAEN","basin":"wp","intensity_kt":25.0,"mslp_mb":1001.0,"time_iso":"2026-01-21T18:00:00","sshws_cat":"TD","is_subtropical":false,"is_nontropical":false}},{"type":"Feature","geometry":{"type":"Point","coordinates":[134.5,12.1]},"properties":{"kind":"observation","storm_id":"JTWC_WP012026","storm_name":"NOKAEN","basin":"wp","intensity_kt":25.0,"mslp_mb":1001.0,"time_iso":"2026-01-22T00:00:00","sshws_cat":"TD","is_subtropical":false,"is_nontropical":false}},{"type":"Feature","geometry":{"type":"LineString","coordinates":[[154.2,7.0],[153.3,7.2],[152.5,7.4],[151.7,7.5],[150.7,8.0],[150.5,8.2],[150.4,8.3],[149.9,8.3],[149.3,8.2],[148.6,8.0],[147.9,7.8],[147.5,7.6],[146.8,7.4],[145.7,7.1],[144.7,7.1],[143.6,7.2],[142.9,7.6],[142.0,7.9],[141.1,8.2],[139.9,8.5],[139.0,8.6],[137.9,8.7],[137.0,8.7],[136.3,8.8],[135.5,9.1],[134.7,9.4],[134.0,9.8],[133.0,10.0],[131.9,10.1],[131.0,10.3],[130.5,10.7],[130.4,11.2],[130.2,11.6],[129.7,12.3],[129.4,12.6],[128.9,12.7],[128.9,13.2],[128.8,13.6],[128.5,13.9]]},"properties":{"kind":"track","storm_id":"JTWC_WP052026","name":"HAGUPIT","basin":"wp","peak_intensity":"TS","peak_kt":40.0,"is_active":false,"is_invest":false,"designation":""}},{"type":"Feature","geometry":{"type":"Point","coordinates":[154.2,7.0]},"properties":{"kind":"observation","storm_id":"JTWC_WP052026","storm_name":"HAGUPIT","basin":"wp","intensity_kt":15.0,"mslp_mb":1006.0,"time_iso":"2026-05-03T06:00:00","sshws_cat":"TD","is_subtropical":false,"is_nontropical":true}},{"type":"Feature","geometry":{"type":"Point","coordinates":[153.3,7.2]},"properties":{"kind":"observation","storm_id":"JTWC_WP052026","storm_name":"HAGUPIT","basin":"wp","intensity_kt":15.0,"mslp_mb":1006.0,"time_iso":"2026-05-03T12:00:00","sshws_cat":"TD","is_subtropical":false,"is_nontropical":true}},{"type":"Feature","geometry":{"type":"Point","coordinates":[152.5,7.4]},"properties":{"kind":"observation","storm_id":"JTWC_WP052026","storm_name":"HAGUPIT","basin":"wp","intensity_kt":15.0,"mslp_mb":1006.0,"time_iso":"2026-05-03T18:00:00","sshws_cat":"TD","is_subtropical":false,"is_nontropical":true}},{"type":"Feature","geometry":{"type":"Point","coordinates":[151.7,7.5]},"properties":{"kind":"observation","storm_id":"JTWC_WP052026","storm_name":"HAGUPIT","basin":"wp","intensity_kt":15.0,"mslp_mb":1007.0,"time_iso":"2026-05-04T00:00:00","sshws_cat":"TD","is_subtropical":false,"is_nontropical":true}},{"type":"Feature","geometry":{"type":"Point","coordinates":[150.7,8.0]},"properties":{"kind":"observation","storm_id":"JTWC_WP052026","storm_name":"HAGUPIT","basin":"wp","intensity_kt":15.0,"mslp_mb":1006.0,"time_iso":"2026-05-04T06:00:00","sshws_cat":"TD","is_subtropical":false,"is_nontropical":true}},{"type":"Feature","geometry":{"type":"Point","coordinates":[150.5,8.2]},"properties":{"kind":"observation","storm_id":"JTWC_WP052026","storm_name":"HAGUPIT","basin":"wp","intensity_kt":15.0,"mslp_mb":1006.0,"time_iso":"2026-05-04T12:00:00","sshws_cat":"TD","is_subtropical":false,"is_nontropical":true}},{"type":"Feature","geometry":{"type":"Point","coordinates":[150.4,8.3]},"properties":{"kind":"observation","storm_id":"JTWC_WP052026","storm_name":"HAGUPIT","basin":"wp","intensity_kt":15.0,"mslp_mb":1006.0,"time_iso":"2026-05-04T18:00:00","sshws_cat":"TD","is_subtropical":false,"is_nontropical":true}},{"type":"Feature","geometry":{"type":"Point","coordinates":[149.9,8.3]},"properties":{"kind":"observation","storm_id":"JTWC_WP052026","storm_name":"HAGUPIT","basin":"wp","intensity_kt":20.0,"mslp_mb":1005.0,"time_iso":"2026-05-05T00:00:00","sshws_cat":"TD","is_subtropical":false,"is_nontropical":true}},{"type":"Feature","geometry":{"type":"Point","coordinates":[149.3,8.2]},"properties":{"kind":"observation","storm_id":"JTWC_WP052026","storm_name":"HAGUPIT","basin":"wp","intensity_kt":20.0,"mslp_mb":1005.0,"time_iso":"2026-05-05T06:00:00","sshws_cat":"TD","is_subtropical":false,"is_nontropical":true}},{"type":"Feature","geometry":{"type":"Point","coordinates":[148.6,8.0]},"properties":{"kind":"observation","storm_id":"JTWC_WP052026","storm_name":"HAGUPIT","basin":"wp","intensity_kt":20.0,"mslp_mb":1005.0,"time_iso":"2026-05-05T12:00:00","sshws_cat":"TD","is_subtropical":false,"is_nontropical":true}},{"type":"Feature","geometry":{"type":"Point","coordinates":[147.9,7.8]},"properties":{"kind":"observation","storm_id":"JTWC_WP052026","storm_name":"HAGUPIT","basin":"wp","intensity_kt":30.0,"mslp_mb":1004.0,"time_iso":"2026-05-05T18:00:00","sshws_cat":"TD","is_subtropical":false,"is_nontropical":false}},{"type":"Feature","geometry":{"type":"Point","coordinates":[147.5,7.6]},"properties":{"kind":"observation","storm_id":"JTWC_WP052026","storm_name":"HAGUPIT","basin":"wp","intensity_kt":35.0,"mslp_mb":1003.0,"time_iso":"2026-05-06T00:00:00","sshws_cat":"TS","is_subtropical":false,"is_nontropical":false}},{"type":"Feature","geometry":{"type":"Point","coordinates":[146.8,7.4]},"properties":{"kind":"observation","storm_id":"JTWC_WP052026","storm_name":"HAGUPIT","basin":"wp","intensity_kt":35.0,"mslp_mb":1003.0,"time_iso":"2026-05-06T06:00:00","sshws_cat":"TS","is_subtropical":false,"is_nontropical":false}},{"type":"Feature","geometry":{"type":"Point","coordinates":[145.7,7.1]},"properties":{"kind":"observation","storm_id":"JTWC_WP052026","storm_name":"HAGUPIT","basin":"wp","intensity_kt":35.0,"mslp_mb":1003.0,"time_iso":"2026-05-06T12:00:00","sshws_cat":"TS","is_subtropical":false,"is_nontropical":false}},{"type":"Feature","geometry":{"type":"Point","coordinates":[144.7,7.1]},"properties":{"kind":"observation","storm_id":"JTWC_WP052026","storm_name":"HAGUPIT","basin":"wp","intensity_kt":35.0,"mslp_mb":1002.0,"time_iso":"2026-05-06T18:00:00","sshws_cat":"TS","is_subtropical":false,"is_nontropical":false}},{"type":"Feature","geometry":{"type":"Point","coordinates":[143.6,7.2]},"properties":{"kind":"observation","storm_id":"JTWC_WP052026","storm_name":"HAGUPIT","basin":"wp","intensity_kt":35.0,"mslp_mb":1003.0,"time_iso":"2026-05-07T00:00:00","sshws_cat":"TS","is_subtropical":false,"is_nontropical":false}},{"type":"Feature","geometry":{"type":"Point","coordinates":[142.9,7.6]},"properties":{"kind":"observation","storm_id":"JTWC_WP052026","storm_name":"HAGUPIT","basin":"wp","intensity_kt":35.0,"mslp_mb":1001.0,"time_iso":"2026-05-07T06:00:00","sshws_cat":"TS","is_subtropical":false,"is_nontropical":false}},{"type":"Feature","geometry":{"type":"Point","coordinates":[142.0,7.9]},"properties":{"kind":"observation","storm_id":"JTWC_WP052026","storm_name":"HAGUPIT","basin":"wp","intensity_kt":35.0,"mslp_mb":1001.0,"time_iso":"2026-05-07T12:00:00","sshws_cat":"TS","is_subtropical":false,"is_nontropical":false}},{"type":"Feature","geometry":{"type":"Point","coordinates":[141.1,8.2]},"properties":{"kind":"observation","storm_id":"JTWC_WP052026","storm_name":"HAGUPIT","basin":"wp","intensity_kt":35.0,"mslp_mb":1001.0,"time_iso":"2026-05-07T18:00:00","sshws_cat":"TS","is_subtropical":false,"is_nontropical":false}},{"type":"Feature","geometry":{"type":"Point","coordinates":[139.9,8.5]},"properties":{"kind":"observation","storm_id":"JTWC_WP052026","storm_name":"HAGUPIT","basin":"wp","intensity_kt":40.0,"mslp_mb":999.0,"time_iso":"2026-05-08T00:00:00","sshws_cat":"TS","is_subtropical":false,"is_nontropical":false}},{"type":"Feature","geometry":{"type":"Point","coordinates":[139.0,8.6]},"properties":{"kind":"observation","storm_id":"JTWC_WP052026","storm_name":"HAGUPIT","basin":"wp","intensity_kt":40.0,"mslp_mb":999.0,"time_iso":"2026-05-08T06:00:00","sshws_cat":"TS","is_subtropical":false,"is_nontropical":false}},{"type":"Feature","geometry":{"type":"Point","coordinates":[137.9,8.7]},"properties":{"kind":"observation","storm_id":"JTWC_WP052026","storm_name":"HAGUPIT","basin":"wp","intensity_kt":35.0,"mslp_mb":1002.0,"time_iso":"2026-05-08T12:00:00","sshws_cat":"TS","is_subtropical":false,"is_nontropical":false}},{"type":"Feature","geometry":{"type":"Point","coordinates":[137.0,8.7]},"properties":{"kind":"observation","storm_id":"JTWC_WP052026","storm_name":"HAGUPIT","basin":"wp","intensity_kt":35.0,"mslp_mb":1002.0,"time_iso":"2026-05-08T18:00:00","sshws_cat":"TS","is_subtropical":false,"is_nontropical":false}},{"type":"Feature","geometry":{"type":"Point","coordinates":[136.3,8.8]},"properties":{"kind":"observation","storm_id":"JTWC_WP052026","storm_name":"HAGUPIT","basin":"wp","intensity_kt":35.0,"mslp_mb":1002.0,"time_iso":"2026-05-09T00:00:00","sshws_cat":"TS","is_subtropical":false,"is_nontropical":false}},{"type":"Feature","geometry":{"type":"Point","coordinates":[135.5,9.1]},"properties":{"kind":"observation","storm_id":"JTWC_WP052026","storm_name":"HAGUPIT","basin":"wp","intensity_kt":35.0,"mslp_mb":1004.0,"time_iso":"2026-05-09T06:00:00","sshws_cat":"TS","is_subtropical":false,"is_nontropical":false}},{"type":"Feature","geometry":{"type":"Point","coordinates":[134.7,9.4]},"properties":{"kind":"observation","storm_id":"JTWC_WP052026","storm_name":"HAGUPIT","basin":"wp","intensity_kt":30.0,"mslp_mb":1004.0,"time_iso":"2026-05-09T12:00:00","sshws_cat":"TD","is_subtropical":false,"is_nontropical":false}},{"type":"Feature","geometry":{"type":"Point","coordinates":[134.0,9.8]},"properties":{"kind":"observation","storm_id":"JTWC_WP052026","storm_name":"HAGUPIT","basin":"wp","intensity_kt":30.0,"mslp_mb":1004.0,"time_iso":"2026-05-09T18:00:00","sshws_cat":"TD","is_subtropical":false,"is_nontropical":false}},{"type":"Feature","geometry":{"type":"Point","coordinates":[133.0,10.0]},"properties":{"kind":"observation","storm_id":"JTWC_WP052026","storm_name":"HAGUPIT","basin":"wp","intensity_kt":30.0,"mslp_mb":1004.0,"time_iso":"2026-05-10T00:00:00","sshws_cat":"TD","is_subtropical":false,"is_nontropical":false}},{"type":"Feature","geometry":{"type":"Point","coordinates":[131.9,10.1]},"properties":{"kind":"observation","storm_id":"JTWC_WP052026","storm_name":"HAGUPIT","basin":"wp","intensity_kt":25.0,"mslp_mb":1004.0,"time_iso":"2026-05-10T06:00:00","sshws_cat":"TD","is_subtropical":false,"is_nontropical":false}},{"type":"Feature","geometry":{"type":"Point","coordinates":[131.0,10.3]},"properties":{"kind":"observation","storm_id":"JTWC_WP052026","storm_name":"HAGUPIT","basin":"wp","intensity_kt":25.0,"mslp_mb":1004.0,"time_iso":"2026-05-10T12:00:00","sshws_cat":"TD","is_subtropical":false,"is_nontropical":false}},{"type":"Feature","geometry":{"type":"Point","coordinates":[130.5,10.7]},"properties":{"kind":"observation","storm_id":"JTWC_WP052026","storm_name":"HAGUPIT","basin":"wp","intensity_kt":25.0,"mslp_mb":1004.0,"time_iso":"2026-05-10T18:00:00","sshws_cat":"TD","is_subtropical":false,"is_nontropical":false}},{"type":"Feature","geometry":{"type":"Point","coordinates":[130.4,11.2]},"properties":{"kind":"observation","storm_id":"JTWC_WP052026","storm_name":"HAGUPIT","basin":"wp","intensity_kt":20.0,"mslp_mb":1007.0,"time_iso":"2026-05-11T00:00:00","sshws_cat":"TD","is_subtropical":false,"is_nontropical":true}},{"type":"Feature","geometry":{"type":"Point","coordinates":[130.2,11.6]},"properties":{"kind":"observation","storm_id":"JTWC_WP052026","storm_name":"HAGUPIT","basin":"wp","intensity_kt":20.0,"mslp_mb":1007.0,"time_iso":"2026-05-11T06:00:00","sshws_cat":"TD","is_subtropical":false,"is_nontropical":true}},{"type":"Feature","geometry":{"type":"Point","coordinates":[129.7,12.3]},"properties":{"kind":"observation","storm_id":"JTWC_WP052026","storm_name":"HAGUPIT","basin":"wp","intensity_kt":20.0,"mslp_mb":1007.0,"time_iso":"2026-05-11T12:00:00","sshws_cat":"TD","is_subtropical":false,"is_nontropical":true}},{"type":"Feature","geometry":{"type":"Point","coordinates":[129.4,12.6]},"properties":{"kind":"observation","storm_id":"JTWC_WP052026","storm_name":"HAGUPIT","basin":"wp","intensity_kt":20.0,"mslp_mb":1007.0,"time_iso":"2026-05-11T18:00:00","sshws_cat":"TD","is_subtropical":false,"is_nontropical":true}},{"type":"Feature","geometry":{"type":"Point","coordinates":[128.9,12.7]},"properties":{"kind":"observation","storm_id":"JTWC_WP052026","storm_name":"HAGUPIT","basin":"wp","intensity_kt":20.0,"mslp_mb":1007.0,"time_iso":"2026-05-12T00:00:00","sshws_cat":"TD","is_subtropical":false,"is_nontropical":true}},{"type":"Feature","geometry":{"type":"Point","coordinates":[128.9,13.2]},"properties":{"kind":"observation","storm_id":"JTWC_WP052026","storm_name":"HAGUPIT","basin":"wp","intensity_kt":20.0,"mslp_mb":1005.0,"time_iso":"2026-05-12T06:00:00","sshws_cat":"TD","is_subtropical":false,"is_nontropical":true}},{"type":"Feature","geometry":{"type":"Point","coordinates":[128.8,13.6]},"properties":{"kind":"observation","storm_id":"JTWC_WP052026","storm_name":"HAGUPIT","basin":"wp","intensity_kt":20.0,"mslp_mb":1005.0,"time_iso":"2026-05-12T12:00:00","sshws_cat":"TD","is_subtropical":false,"is_nontropical":true}},{"type":"Feature","geometry":{"type":"Point","coordinates":[128.5,13.9]},"properties":{"kind":"observation","storm_id":"JTWC_WP052026","storm_name":"HAGUPIT","basin":"wp","intensity_kt":20.0,"mslp_mb":1005.0,"time_iso":"2026-05-12T18:00:00","sshws_cat":"TD","is_subtropical":false,"is_nontropical":true}},{"type":"Feature","geometry":{"type":"LineString","coordinates":[[140.5,6.4],[140.0,6.9],[139.2,7.6],[137.6,8.2],[136.1,8.6],[135.6,9.0],[135.0,9.1],[133.9,9.1],[133.3,8.8],[132.6,8.7],[131.2,8.7],[130.5,8.3],[129.2,7.8],[127.9,8.2],[127.0,8.5],[125.8,9.3],[124.5,9.7],[123.6,9.7],[122.9,9.8],[122.3,10.0],[122.0,10.6],[121.7,11.3],[121.6,11.7]]},"properties":{"kind":"track","storm_id":"JTWC_WP022026","name":"PENHA","basin":"wp","peak_intensity":"TS","peak_kt":40.0,"is_active":false,"is_invest":false,"designation":""}},{"type":"Feature","geometry":{"type":"Point","coordinates":[140.5,6.4]},"properties":{"kind":"observation","storm_id":"JTWC_WP022026","storm_name":"PENHA","basin":"wp","intensity_kt":15.0,"mslp_mb":1005.0,"time_iso":"2026-02-02T00:00:00","sshws_cat":"TD","is_subtropical":false,"is_nontropical":true}},{"type":"Feature","geometry":{"type":"Point","coordinates":[140.0,6.9]},"properties":{"kind":"observation","storm_id":"JTWC_WP022026","storm_name":"PENHA","basin":"wp","intensity_kt":15.0,"mslp_mb":1005.0,"time_iso":"2026-02-02T06:00:00","sshws_cat":"TD","is_subtropical":false,"is_nontropical":true}},{"type":"Feature","geometry":{"type":"Point","coordinates":[139.2,7.6]},"properties":{"kind":"observation","storm_id":"JTWC_WP022026","storm_name":"PENHA","basin":"wp","intensity_kt":15.0,"mslp_mb":1007.0,"time_iso":"2026-02-02T12:00:00","sshws_cat":"TD","is_subtropical":false,"is_nontropical":true}},{"type":"Feature","geometry":{"type":"Point","coordinates":[137.6,8.2]},"properties":{"kind":"observation","storm_id":"JTWC_WP022026","storm_name":"PENHA","basin":"wp","intensity_kt":15.0,"mslp_mb":1004.0,"time_iso":"2026-02-02T18:00:00","sshws_cat":"TD","is_subtropical":false,"is_nontropical":true}},{"type":"Feature","geometry":{"type":"Point","coordinates":[136.1,8.6]},"properties":{"kind":"observation","storm_id":"JTWC_WP022026","storm_name":"PENHA","basin":"wp","intensity_kt":25.0,"mslp_mb":1003.0,"time_iso":"2026-02-03T00:00:00","sshws_cat":"TD","is_subtropical":false,"is_nontropical":true}},{"type":"Feature","geometry":{"type":"Point","coordinates":[135.6,9.0]},"properties":{"kind":"observation","storm_id":"JTWC_WP022026","storm_name":"PENHA","basin":"wp","intensity_kt":25.0,"mslp_mb":1003.0,"time_iso":"2026-02-03T06:00:00","sshws_cat":"TD","is_subtropical":false,"is_nontropical":true}},{"type":"Feature","geometry":{"type":"Point","coordinates":[135.0,9.1]},"properties":{"kind":"observation","storm_id":"JTWC_WP022026","storm_name":"PENHA","basin":"wp","intensity_kt":25.0,"mslp_mb":1003.0,"time_iso":"2026-02-03T12:00:00","sshws_cat":"TD","is_subtropical":false,"is_nontropical":true}},{"type":"Feature","geometry":{"type":"Point","coordinates":[133.9,9.1]},"properties":{"kind":"observation","storm_id":"JTWC_WP022026","storm_name":"PENHA","basin":"wp","intensity_kt":25.0,"mslp_mb":1003.0,"time_iso":"2026-02-03T18:00:00","sshws_cat":"TD","is_subtropical":false,"is_nontropical":true}},{"type":"Feature","geometry":{"type":"Point","coordinates":[133.3,8.8]},"properties":{"kind":"observation","storm_id":"JTWC_WP022026","storm_name":"PENHA","basin":"wp","intensity_kt":30.0,"mslp_mb":1003.0,"time_iso":"2026-02-04T00:00:00","sshws_cat":"TD","is_subtropical":false,"is_nontropical":false}},{"type":"Feature","geometry":{"type":"Point","coordinates":[132.6,8.7]},"properties":{"kind":"observation","storm_id":"JTWC_WP022026","storm_name":"PENHA","basin":"wp","intensity_kt":30.0,"mslp_mb":1002.0,"time_iso":"2026-02-04T06:00:00","sshws_cat":"TD","is_subtropical":false,"is_nontropical":false}},{"type":"Feature","geometry":{"type":"Point","coordinates":[131.2,8.7]},"properties":{"kind":"observation","storm_id":"JTWC_WP022026","storm_name":"PENHA","basin":"wp","intensity_kt":30.0,"mslp_mb":1002.0,"time_iso":"2026-02-04T12:00:00","sshws_cat":"TD","is_subtropical":false,"is_nontropical":false}},{"type":"Feature","geometry":{"type":"Point","coordinates":[130.5,8.3]},"properties":{"kind":"observation","storm_id":"JTWC_WP022026","storm_name":"PENHA","basin":"wp","intensity_kt":30.0,"mslp_mb":1001.0,"time_iso":"2026-02-04T18:00:00","sshws_cat":"TD","is_subtropical":false,"is_nontropical":false}},{"type":"Feature","geometry":{"type":"Point","coordinates":[129.2,7.8]},"properties":{"kind":"observation","storm_id":"JTWC_WP022026","storm_name":"PENHA","basin":"wp","intensity_kt":35.0,"mslp_mb":1000.0,"time_iso":"2026-02-05T00:00:00","sshws_cat":"TS","is_subtropical":false,"is_nontropical":false}},{"type":"Feature","geometry":{"type":"Point","coordinates":[127.9,8.2]},"properties":{"kind":"observation","storm_id":"JTWC_WP022026","storm_name":"PENHA","basin":"wp","intensity_kt":40.0,"mslp_mb":999.0,"time_iso":"2026-02-05T06:00:00","sshws_cat":"TS","is_subtropical":false,"is_nontropical":false}},{"type":"Feature","geometry":{"type":"Point","coordinates":[127.0,8.5]},"properties":{"kind":"observation","storm_id":"JTWC_WP022026","storm_name":"PENHA","basin":"wp","intensity_kt":40.0,"mslp_mb":1001.0,"time_iso":"2026-02-05T12:00:00","sshws_cat":"TS","is_subtropical":false,"is_nontropical":false}},{"type":"Feature","geometry":{"type":"Point","coordinates":[125.8,9.3]},"properties":{"kind":"observation","storm_id":"JTWC_WP022026","storm_name":"PENHA","basin":"wp","intensity_kt":35.0,"mslp_mb":1001.0,"time_iso":"2026-02-05T18:00:00","sshws_cat":"TS","is_subtropical":false,"is_nontropical":false}},{"type":"Feature","geometry":{"type":"Point","coordinates":[124.5,9.7]},"properties":{"kind":"observation","storm_id":"JTWC_WP022026","storm_name":"PENHA","basin":"wp","intensity_kt":30.0,"mslp_mb":1002.0,"time_iso":"2026-02-06T00:00:00","sshws_cat":"TD","is_subtropical":false,"is_nontropical":false}},{"type":"Feature","geometry":{"type":"Point","coordinates":[123.6,9.7]},"properties":{"kind":"observation","storm_id":"JTWC_WP022026","storm_name":"PENHA","basin":"wp","intensity_kt":25.0,"mslp_mb":1004.0,"time_iso":"2026-02-06T06:00:00","sshws_cat":"TD","is_subtropical":false,"is_nontropical":false}},{"type":"Feature","geometry":{"type":"Point","coordinates":[122.9,9.8]},"properties":{"kind":"observation","storm_id":"JTWC_WP022026","storm_name":"PENHA","basin":"wp","intensity_kt":25.0,"mslp_mb":1004.0,"time_iso":"2026-02-06T12:00:00","sshws_cat":"TD","is_subtropical":false,"is_nontropical":false}},{"type":"Feature","geometry":{"type":"Point","coordinates":[122.3,10.0]},"properties":{"kind":"observation","storm_id":"JTWC_WP022026","storm_name":"PENHA","basin":"wp","intensity_kt":20.0,"mslp_mb":1007.0,"time_iso":"2026-02-06T18:00:00","sshws_cat":"TD","is_subtropical":false,"is_nontropical":true}},{"type":"Feature","geometry":{"type":"Point","coordinates":[122.0,10.6]},"properties":{"kind":"observation","storm_id":"JTWC_WP022026","storm_name":"PENHA","basin":"wp","intensity_kt":15.0,"mslp_mb":1007.0,"time_iso":"2026-02-07T00:00:00","sshws_cat":"TD","is_subtropical":false,"is_nontropical":true}},{"type":"Feature","geometry":{"type":"Point","coordinates":[121.7,11.3]},"properties":{"kind":"observation","storm_id":"JTWC_WP022026","storm_name":"PENHA","basin":"wp","intensity_kt":15.0,"mslp_mb":1007.0,"time_iso":"2026-02-07T06:00:00","sshws_cat":"TD","is_subtropical":false,"is_nontropical":true}},{"type":"Feature","geometry":{"type":"Point","coordinates":[121.6,11.7]},"properties":{"kind":"observation","storm_id":"JTWC_WP022026","storm_name":"PENHA","basin":"wp","intensity_kt":15.0,"mslp_mb":1009.0,"time_iso":"2026-02-07T12:00:00","sshws_cat":"TD","is_subtropical":false,"is_nontropical":true}},{"type":"Feature","geometry":{"type":"LineString","coordinates":[[152.1,5.5],[151.1,5.6],[150.1,5.5],[148.7,5.3],[147.6,5.3],[146.9,5.5],[144.7,5.9],[142.7,6.4],[141.5,6.7],[141.0,6.8],[140.7,7.1],[140.4,7.7],[140.2,8.6],[140.0,9.6],[139.7,10.0],[139.4,10.1],[139.2,10.2],[139.0,10.3],[138.8,10.5],[138.6,10.9],[138.1,11.1],[137.6,11.1],[137.4,11.3],[137.4,11.4],[137.5,11.5],[137.5,11.2],[136.8,10.4],[137.4,10.5],[137.7,10.7],[137.9,10.3],[138.1,10.0],[138.1,9.8],[138.3,9.4]]},"properties":{"kind":"track","storm_id":"JTWC_WP032026","name":"NURI","basin":"wp","peak_intensity":"TD","peak_kt":30.0,"is_active":false,"is_invest":false,"designation":""}},{"type":"Feature","geometry":{"type":"Point","coordinates":[152.1,5.5]},"properties":{"kind":"observation","storm_id":"JTWC_WP032026","storm_name":"NURI","basin":"wp","intensity_kt":15.0,"mslp_mb":1008.0,"time_iso":"2026-03-04T12:00:00","sshws_cat":"TD","is_subtropical":false,"is_nontropical":true}},{"type":"Feature","geometry":{"type":"Point","coordinates":[151.1,5.6]},"properties":{"kind":"observation","storm_id":"JTWC_WP032026","storm_name":"NURI","basin":"wp","intensity_kt":15.0,"mslp_mb":1008.0,"time_iso":"2026-03-04T18:00:00","sshws_cat":"TD","is_subtropical":false,"is_nontropical":true}},{"type":"Feature","geometry":{"type":"Point","coordinates":[150.1,5.5]},"properties":{"kind":"observation","storm_id":"JTWC_WP032026","storm_name":"NURI","basin":"wp","intensity_kt":15.0,"mslp_mb":1008.0,"time_iso":"2026-03-05T00:00:00","sshws_cat":"TD","is_subtropical":false,"is_nontropical":true}},{"type":"Feature","geometry":{"type":"Point","coordinates":[148.7,5.3]},"properties":{"kind":"observation","storm_id":"JTWC_WP032026","storm_name":"NURI","basin":"wp","intensity_kt":15.0,"mslp_mb":1008.0,"time_iso":"2026-03-05T06:00:00","sshws_cat":"TD","is_subtropical":false,"is_nontropical":true}},{"type":"Feature","geometry":{"type":"Point","coordinates":[147.6,5.3]},"properties":{"kind":"observation","storm_id":"JTWC_WP032026","storm_name":"NURI","basin":"wp","intensity_kt":15.0,"mslp_mb":1008.0,"time_iso":"2026-03-05T12:00:00","sshws_cat":"TD","is_subtropical":false,"is_nontropical":true}},{"type":"Feature","geometry":{"type":"Point","coordinates":[146.9,5.5]},"properties":{"kind":"observation","storm_id":"JTWC_WP032026","storm_name":"NURI","basin":"wp","intensity_kt":15.0,"mslp_mb":1008.0,"time_iso":"2026-03-05T18:00:00","sshws_cat":"TD","is_subtropical":false,"is_nontropical":true}},{"type":"Feature","geometry":{"type":"Point","coordinates":[144.7,5.9]},"properties":{"kind":"observation","storm_id":"JTWC_WP032026","storm_name":"NURI","basin":"wp","intensity_kt":15.0,"mslp_mb":1006.0,"time_iso":"2026-03-06T00:00:00","sshws_cat":"TD","is_subtropical":false,"is_nontropical":true}},{"type":"Feature","geometry":{"type":"Point","coordinates":[142.7,6.4]},"properties":{"kind":"observation","storm_id":"JTWC_WP032026","storm_name":"NURI","basin":"wp","intensity_kt":15.0,"mslp_mb":1006.0,"time_iso":"2026-03-06T06:00:00","sshws_cat":"TD","is_subtropical":false,"is_nontropical":true}},{"type":"Feature","geometry":{"type":"Point","coordinates":[141.5,6.7]},"properties":{"kind":"observation","storm_id":"JTWC_WP032026","storm_name":"NURI","basin":"wp","intensity_kt":15.0,"mslp_mb":1006.0,"time_iso":"2026-03-06T12:00:00","sshws_cat":"TD","is_subtropical":false,"is_nontropical":true}},{"type":"Feature","geometry":{"type":"Point","coordinates":[141.0,6.8]},"properties":{"kind":"observation","storm_id":"JTWC_WP032026","storm_name":"NURI","basin":"wp","intensity_kt":20.0,"mslp_mb":1005.0,"time_iso":"2026-03-06T18:00:00","sshws_cat":"TD","is_subtropical":false,"is_nontropical":true}},{"type":"Feature","geometry":{"type":"Point","coordinates":[140.7,7.1]},"properties":{"kind":"observation","storm_id":"JTWC_WP032026","storm_name":"NURI","basin":"wp","intensity_kt":20.0,"mslp_mb":1004.0,"time_iso":"2026-03-07T00:00:00","sshws_cat":"TD","is_subtropical":false,"is_nontropical":true}},{"type":"Feature","geometry":{"type":"Point","coordinates":[140.4,7.7]},"properties":{"kind":"observation","storm_id":"JTWC_WP032026","storm_name":"NURI","basin":"wp","intensity_kt":20.0,"mslp_mb":1004.0,"time_iso":"2026-03-07T06:00:00","sshws_cat":"TD","is_subtropical":false,"is_nontropical":true}},{"type":"Feature","geometry":{"type":"Point","coordinates":[140.2,8.6]},"properties":{"kind":"observation","storm_id":"JTWC_WP032026","storm_name":"NURI","basin":"wp","intensity_kt":20.0,"mslp_mb":1004.0,"time_iso":"2026-03-07T12:00:00","sshws_cat":"TD","is_subtropical":false,"is_nontropical":true}},{"type":"Feature","geometry":{"type":"Point","coordinates":[140.0,9.6]},"properties":{"kind":"observation","storm_id":"JTWC_WP032026","storm_name":"NURI","basin":"wp","intensity_kt":20.0,"mslp_mb":1005.0,"time_iso":"2026-03-07T18:00:00","sshws_cat":"TD","is_subtropical":false,"is_nontropical":true}},{"type":"Feature","geometry":{"type":"Point","coordinates":[139.7,10.0]},"properties":{"kind":"observation","storm_id":"JTWC_WP032026","storm_name":"NURI","basin":"wp","intensity_kt":20.0,"mslp_mb":1005.0,"time_iso":"2026-03-08T00:00:00","sshws_cat":"TD","is_subtropical":false,"is_nontropical":true}},{"type":"Feature","geometry":{"type":"Point","coordinates":[139.4,10.1]},"properties":{"kind":"observation","storm_id":"JTWC_WP032026","storm_name":"NURI","basin":"wp","intensity_kt":20.0,"mslp_mb":1005.0,"time_iso":"2026-03-08T06:00:00","sshws_cat":"TD","is_subtropical":false,"is_nontropical":true}},{"type":"Feature","geometry":{"type":"Point","coordinates":[139.2,10.2]},"properties":{"kind":"observation","storm_id":"JTWC_WP032026","storm_name":"NURI","basin":"wp","intensity_kt":20.0,"mslp_mb":1006.0,"time_iso":"2026-03-08T12:00:00","sshws_cat":"TD","is_subtropical":false,"is_nontropical":true}},{"type":"Feature","geometry":{"type":"Point","coordinates":[139.0,10.3]},"properties":{"kind":"observation","storm_id":"JTWC_WP032026","storm_name":"NURI","basin":"wp","intensity_kt":20.0,"mslp_mb":1008.0,"time_iso":"2026-03-08T18:00:00","sshws_cat":"TD","is_subtropical":false,"is_nontropical":true}},{"type":"Feature","geometry":{"type":"Point","coordinates":[138.8,10.5]},"properties":{"kind":"observation","storm_id":"JTWC_WP032026","storm_name":"NURI","basin":"wp","intensity_kt":20.0,"mslp_mb":1008.0,"time_iso":"2026-03-09T00:00:00","sshws_cat":"TD","is_subtropical":false,"is_nontropical":true}},{"type":"Feature","geometry":{"type":"Point","coordinates":[138.6,10.9]},"properties":{"kind":"observation","storm_id":"JTWC_WP032026","storm_name":"NURI","basin":"wp","intensity_kt":20.0,"mslp_mb":1005.0,"time_iso":"2026-03-09T06:00:00","sshws_cat":"TD","is_subtropical":false,"is_nontropical":true}},{"type":"Feature","geometry":{"type":"Point","coordinates":[138.1,11.1]},"properties":{"kind":"observation","storm_id":"JTWC_WP032026","storm_name":"NURI","basin":"wp","intensity_kt":20.0,"mslp_mb":1005.0,"time_iso":"2026-03-09T12:00:00","sshws_cat":"TD","is_subtropical":false,"is_nontropical":true}},{"type":"Feature","geometry":{"type":"Point","coordinates":[137.6,11.1]},"properties":{"kind":"observation","storm_id":"JTWC_WP032026","storm_name":"NURI","basin":"wp","intensity_kt":20.0,"mslp_mb":1004.0,"time_iso":"2026-03-09T18:00:00","sshws_cat":"TD","is_subtropical":false,"is_nontropical":true}},{"type":"Feature","geometry":{"type":"Point","coordinates":[137.4,11.3]},"properties":{"kind":"observation","storm_id":"JTWC_WP032026","storm_name":"NURI","basin":"wp","intensity_kt":25.0,"mslp_mb":1005.0,"time_iso":"2026-03-10T00:00:00","sshws_cat":"TD","is_subtropical":false,"is_nontropical":true}},{"type":"Feature","geometry":{"type":"Point","coordinates":[137.4,11.4]},"properties":{"kind":"observation","storm_id":"JTWC_WP032026","storm_name":"NURI","basin":"wp","intensity_kt":25.0,"mslp_mb":1000.0,"time_iso":"2026-03-10T06:00:00","sshws_cat":"TD","is_subtropical":false,"is_nontropical":true}},{"type":"Feature","geometry":{"type":"Point","coordinates":[137.5,11.5]},"properties":{"kind":"observation","storm_id":"JTWC_WP032026","storm_name":"NURI","basin":"wp","intensity_kt":30.0,"mslp_mb":1003.0,"time_iso":"2026-03-10T12:00:00","sshws_cat":"TD","is_subtropical":false,"is_nontropical":true}},{"type":"Feature","geometry":{"type":"Point","coordinates":[137.5,11.2]},"properties":{"kind":"observation","storm_id":"JTWC_WP032026","storm_name":"NURI","basin":"wp","intensity_kt":30.0,"mslp_mb":1003.0,"time_iso":"2026-03-10T18:00:00","sshws_cat":"TD","is_subtropical":false,"is_nontropical":true}},{"type":"Feature","geometry":{"type":"Point","coordinates":[136.8,10.4]},"properties":{"kind":"observation","storm_id":"JTWC_WP032026","storm_name":"NURI","basin":"wp","intensity_kt":30.0,"mslp_mb":1001.0,"time_iso":"2026-03-11T00:00:00","sshws_cat":"TD","is_subtropical":false,"is_nontropical":false}},{"type":"Feature","geometry":{"type":"Point","coordinates":[137.4,10.5]},"properties":{"kind":"observation","storm_id":"JTWC_WP032026","storm_name":"NURI","basin":"wp","intensity_kt":30.0,"mslp_mb":1000.0,"time_iso":"2026-03-11T06:00:00","sshws_cat":"TD","is_subtropical":false,"is_nontropical":false}},{"type":"Feature","geometry":{"type":"Point","coordinates":[137.7,10.7]},"properties":{"kind":"observation","storm_id":"JTWC_WP032026","storm_name":"NURI","basin":"wp","intensity_kt":30.0,"mslp_mb":1000.0,"time_iso":"2026-03-11T12:00:00","sshws_cat":"TD","is_subtropical":false,"is_nontropical":false}},{"type":"Feature","geometry":{"type":"Point","coordinates":[137.9,10.3]},"properties":{"kind":"observation","storm_id":"JTWC_WP032026","storm_name":"NURI","basin":"wp","intensity_kt":30.0,"mslp_mb":1001.0,"time_iso":"2026-03-11T18:00:00","sshws_cat":"TD","is_subtropical":false,"is_nontropical":false}},{"type":"Feature","geometry":{"type":"Point","coordinates":[138.1,10.0]},"properties":{"kind":"observation","storm_id":"JTWC_WP032026","storm_name":"NURI","basin":"wp","intensity_kt":20.0,"mslp_mb":1003.0,"time_iso":"2026-03-12T00:00:00","sshws_cat":"TD","is_subtropical":false,"is_nontropical":true}},{"type":"Feature","geometry":{"type":"Point","coordinates":[138.1,9.8]},"properties":{"kind":"observation","storm_id":"JTWC_WP032026","storm_name":"NURI","basin":"wp","intensity_kt":20.0,"mslp_mb":1001.0,"time_iso":"2026-03-12T06:00:00","sshws_cat":"TD","is_subtropical":false,"is_nontropical":true}},{"type":"Feature","geometry":{"type":"Point","coordinates":[138.3,9.4]},"properties":{"kind":"observation","storm_id":"JTWC_WP032026","storm_name":"NURI","basin":"wp","intensity_kt":15.0,"mslp_mb":1002.0,"time_iso":"2026-03-12T12:00:00","sshws_cat":"TD","is_subtropical":false,"is_nontropical":true}}]}